CCSDS_OMM_VERS = 2.0
CREATION_DATE  = 
ORIGINATOR     = 

OBJECT_NAME    = SL-16 R/B
OBJECT_ID      = 1993-016B
CENTER_NAME    = EARTH
REF_FRAME      = TEME
TIME_SYSTEM    = UTC
MEAN_ELEMENT_THEORY = SGP/SGP4

EPOCH          = 2025-12-20T01:20:10.860864
MEAN_MOTION    = 14.15289143
ECCENTRICITY   = .0008022
INCLINATION    = 71.0080
RA_OF_ASC_NODE = 22.4381
ARG_OF_PERICENTER = 83.4010
MEAN_ANOMALY   = 276.8026

EPHEMERIS_TYPE = 0
CLASSIFICATION_TYPE = U
NORAD_CAT_ID   = 22566
ELEMENT_SET_NO = 999
REV_AT_EPOCH   = 69090
BSTAR          = .16698948E-3
MEAN_MOTION_DOT = .278E-5
MEAN_MOTION_DDOT = 0

CCSDS_OMM_VERS = 2.0
CREATION_DATE  = 
ORIGINATOR     = 

OBJECT_NAME    = COSMOS 2242
OBJECT_ID      = 1993-024A
CENTER_NAME    = EARTH
REF_FRAME      = TEME
TIME_SYSTEM    = UTC
MEAN_ELEMENT_THEORY = SGP/SGP4

EPOCH          = 2025-12-20T01:25:48.096480
MEAN_MOTION    = 14.96133420
ECCENTRICITY   = .00154388
INCLINATION    = 82.5184
RA_OF_ASC_NODE = 342.8478
ARG_OF_PERICENTER = 207.7433
MEAN_ANOMALY   = 152.2967

EPHEMERIS_TYPE = 0
CLASSIFICATION_TYPE = U
NORAD_CAT_ID   = 22626
ELEMENT_SET_NO = 999
REV_AT_EPOCH   = 76848
BSTAR          = .12910463E-3
MEAN_MOTION_DOT = .1481E-4
MEAN_MOTION_DDOT = 0

CCSDS_OMM_VERS = 2.0
CREATION_DATE  = 
ORIGINATOR     = 

OBJECT_NAME    = SL-16 R/B
OBJECT_ID      = 1993-059B
CENTER_NAME    = EARTH
REF_FRAME      = TEME
TIME_SYSTEM    = UTC
MEAN_ELEMENT_THEORY = SGP/SGP4

EPOCH          = 2025-12-20T05:07:53.995296
MEAN_MOTION    = 14.17213296
ECCENTRICITY   = .00183492
INCLINATION    = 70.9879
RA_OF_ASC_NODE = 178.7250
ARG_OF_PERICENTER = 325.1023
MEAN_ANOMALY   = 34.8896

EPHEMERIS_TYPE = 0
CLASSIFICATION_TYPE = U
NORAD_CAT_ID   = 22803
ELEMENT_SET_NO = 999
REV_AT_EPOCH   = 66827
BSTAR          = .55599624E-4
MEAN_MOTION_DOT = .64E-6
MEAN_MOTION_DDOT = 0

CCSDS_OMM_VERS = 2.0
CREATION_DATE  = 
ORIGINATOR     = 

OBJECT_NAME    = ARIANE 40 R/B
OBJECT_ID      = 1993-061H
CENTER_NAME    = EARTH
REF_FRAME      = TEME
TIME_SYSTEM    = UTC
MEAN_ELEMENT_THEORY = SGP/SGP4

EPOCH          = 2025-12-20T02:10:13.604736
MEAN_MOTION    = 14.32805889
ECCENTRICITY   = .00112816
INCLINATION    = 98.5067
RA_OF_ASC_NODE = 59.4864
ARG_OF_PERICENTER = 154.9598
MEAN_ANOMALY   = 205.2136

EPHEMERIS_TYPE = 0
CLASSIFICATION_TYPE = U
NORAD_CAT_ID   = 22830
ELEMENT_SET_NO = 999
REV_AT_EPOCH   = 68270
BSTAR          = .83052169E-4
MEAN_MOTION_DOT = .183E-5
MEAN_MOTION_DDOT = 0

CCSDS_OMM_VERS = 2.0
CREATION_DATE  = 
ORIGINATOR     = 

OBJECT_NAME    = COSMOS 2278
OBJECT_ID      = 1994-023A
CENTER_NAME    = EARTH
REF_FRAME      = TEME
TIME_SYSTEM    = UTC
MEAN_ELEMENT_THEORY = SGP/SGP4

EPOCH          = 2025-12-20T02:29:01.447872
MEAN_MOTION    = 14.14348300
ECCENTRICITY   = .00079512
INCLINATION    = 71.0534
RA_OF_ASC_NODE = 341.6043
ARG_OF_PERICENTER = 166.7087
MEAN_ANOMALY   = 193.4247

EPHEMERIS_TYPE = 0
CLASSIFICATION_TYPE = U
NORAD_CAT_ID   = 23087
ELEMENT_SET_NO = 999
REV_AT_EPOCH   = 63355
BSTAR          = -.66605698E-4
MEAN_MOTION_DOT = -.175E-5
MEAN_MOTION_DDOT = 0

CCSDS_OMM_VERS = 2.0
CREATION_DATE  = 
ORIGINATOR     = 

OBJECT_NAME    = SL-16 R/B
OBJECT_ID      = 1994-023B
CENTER_NAME    = EARTH
REF_FRAME      = TEME
TIME_SYSTEM    = UTC
MEAN_ELEMENT_THEORY = SGP/SGP4

EPOCH          = 2025-12-20T02:46:20.149536
MEAN_MOTION    = 14.15001634
ECCENTRICITY   = .00018016
INCLINATION    = 70.9989
RA_OF_ASC_NODE = 237.9970
ARG_OF_PERICENTER = 8.9227
MEAN_ANOMALY   = 351.1927

EPHEMERIS_TYPE = 0
CLASSIFICATION_TYPE = U
NORAD_CAT_ID   = 23088
ELEMENT_SET_NO = 999
REV_AT_EPOCH   = 63483
BSTAR          = -.87543624E-4
MEAN_MOTION_DOT = -.217E-5
MEAN_MOTION_DDOT = 0

CCSDS_OMM_VERS = 2.0
CREATION_DATE  = 
ORIGINATOR     = 

OBJECT_NAME    = SL-16 R/B
OBJECT_ID      = 1994-074B
CENTER_NAME    = EARTH
REF_FRAME      = TEME
TIME_SYSTEM    = UTC
MEAN_ELEMENT_THEORY = SGP/SGP4

EPOCH          = 2025-12-20T02:47:50.813376
MEAN_MOTION    = 14.79297392
ECCENTRICITY   = .00079134
INCLINATION    = 97.7193
RA_OF_ASC_NODE = 23.1277
ARG_OF_PERICENTER = 115.5306
MEAN_ANOMALY   = 311.8853

EPHEMERIS_TYPE = 0
CLASSIFICATION_TYPE = U
NORAD_CAT_ID   = 23343
ELEMENT_SET_NO = 999
REV_AT_EPOCH   = 67548
BSTAR          = .51019646E-4
MEAN_MOTION_DOT = .33E-5
MEAN_MOTION_DDOT = 0

CCSDS_OMM_VERS = 2.0
CREATION_DATE  = 
ORIGINATOR     = 

OBJECT_NAME    = SL-16 R/B
OBJECT_ID      = 1994-077B
CENTER_NAME    = EARTH
REF_FRAME      = TEME
TIME_SYSTEM    = UTC
MEAN_ELEMENT_THEORY = SGP/SGP4

EPOCH          = 2025-12-19T21:59:17.545056
MEAN_MOTION    = 14.15552934
ECCENTRICITY   = .0004967
INCLINATION    = 70.9820
RA_OF_ASC_NODE = 160.3170
ARG_OF_PERICENTER = 280.4699
MEAN_ANOMALY   = 79.5864

EPHEMERIS_TYPE = 0
CLASSIFICATION_TYPE = U
NORAD_CAT_ID   = 23405
ELEMENT_SET_NO = 999
REV_AT_EPOCH   = 60494
BSTAR          = .22393E-4
MEAN_MOTION_DOT = -.4E-7
MEAN_MOTION_DDOT = 0

CCSDS_OMM_VERS = 2.0
CREATION_DATE  = 
ORIGINATOR     = 

OBJECT_NAME    = ARIANE 40+ R/B
OBJECT_ID      = 1995-021B
CENTER_NAME    = EARTH
REF_FRAME      = TEME
TIME_SYSTEM    = UTC
MEAN_ELEMENT_THEORY = SGP/SGP4

EPOCH          = 2025-12-19T23:40:08.081760
MEAN_MOTION    = 14.39700550
ECCENTRICITY   = .0007128
INCLINATION    = 98.4643
RA_OF_ASC_NODE = 61.4875
ARG_OF_PERICENTER = 30.0378
MEAN_ANOMALY   = 143.5506

EPHEMERIS_TYPE = 0
CLASSIFICATION_TYPE = U
NORAD_CAT_ID   = 23561
ELEMENT_SET_NO = 999
REV_AT_EPOCH   = 60777
BSTAR          = .83887E-4
MEAN_MOTION_DOT = .219E-5
MEAN_MOTION_DDOT = 0

CCSDS_OMM_VERS = 2.0
CREATION_DATE  = 
ORIGINATOR     = 

OBJECT_NAME    = SL-16 R/B
OBJECT_ID      = 1995-058B
CENTER_NAME    = EARTH
REF_FRAME      = TEME
TIME_SYSTEM    = UTC
MEAN_ELEMENT_THEORY = SGP/SGP4

EPOCH          = 2025-12-20T01:27:11.637504
MEAN_MOTION    = 14.15483038
ECCENTRICITY   = .00148788
INCLINATION    = 71.0221
RA_OF_ASC_NODE = 347.4343
ARG_OF_PERICENTER = 245.8963
MEAN_ANOMALY   = 114.0605

EPHEMERIS_TYPE = 0
CLASSIFICATION_TYPE = U
NORAD_CAT_ID   = 23705
ELEMENT_SET_NO = 999
REV_AT_EPOCH   = 55658
BSTAR          = -.99314646E-4
MEAN_MOTION_DOT = -.242E-5
MEAN_MOTION_DDOT = 0

CCSDS_OMM_VERS = 2.0
CREATION_DATE  = 
ORIGINATOR     = 

OBJECT_NAME    = SL-16 R/B
OBJECT_ID      = 1996-051B
CENTER_NAME    = EARTH
REF_FRAME      = TEME
TIME_SYSTEM    = UTC
MEAN_ELEMENT_THEORY = SGP/SGP4

EPOCH          = 2025-12-19T23:53:54.065760
MEAN_MOTION    = 14.12397346
ECCENTRICITY   = .00194717
INCLINATION    = 70.7595
RA_OF_ASC_NODE = 343.9248
ARG_OF_PERICENTER = 252.4701
MEAN_ANOMALY   = 107.4292

EPHEMERIS_TYPE = 0
CLASSIFICATION_TYPE = U
NORAD_CAT_ID   = 24298
ELEMENT_SET_NO = 999
REV_AT_EPOCH   = 51039
BSTAR          = .5178368E-5
MEAN_MOTION_DOT = -.4E-6
MEAN_MOTION_DDOT = 0

CCSDS_OMM_VERS = 2.0
CREATION_DATE  = 
ORIGINATOR     = 

OBJECT_NAME    = ORBVIEW 2 (SEASTAR)
OBJECT_ID      = 1997-037A
CENTER_NAME    = EARTH
REF_FRAME      = TEME
TIME_SYSTEM    = UTC
MEAN_ELEMENT_THEORY = SGP/SGP4

EPOCH          = 2025-12-20T00:36:24.594624
MEAN_MOTION    = 14.35421931
ECCENTRICITY   = .0001371
INCLINATION    = 98.8460
RA_OF_ASC_NODE = 151.2833
ARG_OF_PERICENTER = 312.1571
MEAN_ANOMALY   = 47.9497

EPHEMERIS_TYPE = 0
CLASSIFICATION_TYPE = U
NORAD_CAT_ID   = 24883
ELEMENT_SET_NO = 999
REV_AT_EPOCH   = 49704
BSTAR          = .80046022E-4
MEAN_MOTION_DOT = .183E-5
MEAN_MOTION_DDOT = 0

