SL-16 R/B               
1 22566U 93016B   25354.05568126  .00000278  00000+0  16699-3 0  9992
2 22566  71.0080  22.4381 0008022  83.4010 276.8026 14.15289143690900
COSMOS 2242             
1 22626U 93024A   25354.05958445  .00001481  00000+0  12910-3 0  9994
2 22626  82.5184 342.8478 0015438 207.7433 152.2967 14.96133420768489
SL-16 R/B               
1 22803U 93059B   25354.21381939  .00000064  00000+0  55600-4 0  9995
2 22803  70.9879 178.7250 0018349 325.1023  34.8896 14.17213296668271
ARIANE 40 R/B           
1 22830U 93061H   25354.09043524  .00000183  00000+0  83052-4 0  9993
2 22830  98.5067  59.4864 0011281 154.9598 205.2136 14.32805889682702
COSMOS 2278             
1 23087U 94023A   25354.10348898 -.00000175  00000+0 -66606-4 0  9990
2 23087  71.0534 341.6043 0007951 166.7087 193.4247 14.14348300633550
SL-16 R/B               
1 23088U 94023B   25354.11551099 -.00000217  00000+0 -87544-4 0  9992
2 23088  70.9989 237.9970 0001801   8.9227 351.1927 14.15001634634837
SL-16 R/B               
1 23343U 94074B   25354.11656034  .00000330  00000+0  51020-4 0  9991
2 23343  97.7193  23.1277 0007913 115.5306 311.8853 14.79297392675488
SL-16 R/B               
1 23405U 94077B   25353.91617529 -.00000004  00000+0  22393-4 0  9996
2 23405  70.9820 160.3170 0004967 280.4699  79.5864 14.15552934604945
ARIANE 40+ R/B          
1 23561U 95021B   25353.98620465  .00000219  00000+0  83887-4 0  9991
2 23561  98.4643  61.4875 0007128  30.0378 143.5506 14.39700550607778
SL-16 R/B               
1 23705U 95058B   25354.06055136 -.00000242  00000+0 -99315-4 0  9999
2 23705  71.0221 347.4343 0014878 245.8963 114.0605 14.15483038556588
SL-16 R/B               
1 24298U 96051B   25353.99576465 -.00000040  00000+0  51784-5 0  9999
2 24298  70.7595 343.9248 0019471 252.4701 107.4292 14.12397346510399
ORBVIEW 2 (SEASTAR)     
1 24883U 97037A   25354.02528466  .00000183  00000+0  80046-4 0  9996
2 24883  98.8460 151.2833 0001371 312.1571  47.9497 14.35421931497044
